{
  "type": "FeatureCollection",
  "features": [
    {
      "type": "Feature",
      "properties": {
        "norad_id": 66863,
        "name": "STARLINK-36134",
        "group": "last-30-days",
        "lat": 22.524528291263493,
        "lon": -115.86205795590091,
        "alt_km": 338.3938396584517,
        "timestamp": "2025-12-17T21:39:44.492461+00:00",
        "meta_object_name": "STARLINK-36134",
        "meta_object_id": "2025-281R",
        "meta_epoch": "2025-12-17T14:00:03.000384",
        "meta_mean_motion": 15.77306733,
        "meta_eccentricity": 0.00012718,
        "meta_inclination": 43.0005,
        "meta_ra_of_asc_node": 92.5063,
        "meta_arg_of_pericenter": 287.9918,
        "meta_mean_anomaly": 203.4763,
        "meta_ephemeris_type": 0,
        "meta_classification_type": "U",
        "meta_norad_cat_id": 66863,
        "meta_element_set_no": 999,
        "meta_rev_at_epoch": 217,
        "meta_bstar": -0.010168388,
        "meta_mean_motion_dot": -0.01517181,
        "meta_mean_motion_ddot": 0,
        "tle_line1": "1 66863U 25281R   25351.58336806 -.01517181  00000+0 -10168-1 0  9994",
        "tle_line2": "2 66863  43.0005  92.5063 0001271 287.9918 203.4763 15.77306733  2170"
      },
      "geometry": {
        "type": "Point",
        "coordinates": [
          -115.86205795590091,
          22.524528291263493
        ]
      }
    },
    {
      "type": "Feature",
      "properties": {
        "norad_id": 66864,
        "name": "STARLINK-36070",
        "group": "last-30-days",
        "lat": 21.261264154859823,
        "lon": -114.1218862906013,
        "alt_km": 338.89751936339053,
        "timestamp": "2025-12-17T21:39:44.492470+00:00",
        "meta_object_name": "STARLINK-36070",
        "meta_object_id": "2025-281S",
        "meta_epoch": "2025-12-17T14:00:03.000384",
        "meta_mean_motion": 15.77187869,
        "meta_eccentricity": 0.00014328,
        "meta_inclination": 43.0005,
        "meta_ra_of_asc_node": 92.5007,
        "meta_arg_of_pericenter": 285.2509,
        "meta_mean_anomaly": 208.3955,
        "meta_ephemeris_type": 0,
        "meta_classification_type": "U",
        "meta_norad_cat_id": 66864,
        "meta_element_set_no": 999,
        "meta_rev_at_epoch": 220,
        "meta_bstar": -0.010001074,
        "meta_mean_motion_dot": -0.01488316,
        "meta_mean_motion_ddot": 0,
        "tle_line1": "1 66864U 25281S   25351.58336806 -.01488316  00000+0 -10001-1 0  9998",
        "tle_line2": "2 66864  43.0005  92.5007 0001432 285.2509 208.3955 15.77187869  2203"
      },
      "geometry": {
        "type": "Point",
        "coordinates": [
          -114.1218862906013,
          21.261264154859823
        ]
      }
    },
    {
      "type": "Feature",
      "properties": {
        "norad_id": 66865,
        "name": "STARLINK-36117",
        "group": "last-30-days",
        "lat": 18.675865170353337,
        "lon": -110.71896528821496,
        "alt_km": 339.91583012980846,
        "timestamp": "2025-12-17T21:39:44.492481+00:00",
        "meta_object_name": "STARLINK-36117",
        "meta_object_id": "2025-281T",
        "meta_epoch": "2025-12-17T14:00:03.000384",
        "meta_mean_motion": 15.7693448,
        "meta_eccentricity": 0.00013301,
        "meta_inclination": 43.0005,
        "meta_ra_of_asc_node": 92.4902,
        "meta_arg_of_pericenter": 283.0761,
        "meta_mean_anomaly": 214.983,
        "meta_ephemeris_type": 0,
        "meta_classification_type": "U",
        "meta_norad_cat_id": 66865,
        "meta_element_set_no": 999,
        "meta_rev_at_epoch": 217,
        "meta_bstar": -0.010179353,
        "meta_mean_motion_dot": -0.01496451,
        "meta_mean_motion_ddot": 0,
        "tle_line1": "1 66865U 25281T   25351.58336806 -.01496451  00000+0 -10179-1 0  9994",
        "tle_line2": "2 66865  43.0005  92.4902 0001330 283.0761 214.9830 15.76934480  2179"
      },
      "geometry": {
        "type": "Point",
        "coordinates": [
          -110.71896528821496,
          18.675865170353337
        ]
      }
    },
    {
      "type": "Feature",
      "properties": {
        "norad_id": 66866,
        "name": "STARLINK-36126",
        "group": "last-30-days",
        "lat": 17.393329947518,
        "lon": -109.09911719768769,
        "alt_km": 340.2216065792654,
        "timestamp": "2025-12-17T21:39:44.492490+00:00",
        "meta_object_name": "STARLINK-36126",
        "meta_object_id": "2025-281U",
        "meta_epoch": "2025-12-17T14:00:03.000384",
        "meta_mean_motion": 15.7685538,
        "meta_eccentricity": 0.00012218,
        "meta_inclination": 43.0008,
        "meta_ra_of_asc_node": 92.4848,
        "meta_arg_of_pericenter": 283.9053,
        "meta_mean_anomaly": 216.2395,
        "meta_ephemeris_type": 0,
        "meta_classification_type": "U",
        "meta_norad_cat_id": 66866,
        "meta_element_set_no": 999,
        "meta_rev_at_epoch": 220,
        "meta_bstar": -0.010024073,
        "meta_mean_motion_dot": -0.01471665,
        "meta_mean_motion_ddot": 0,
        "tle_line1": "1 66866U 25281U   25351.58336806 -.01471665  00000+0 -10024-1 0  9994",
        "tle_line2": "2 66866  43.0008  92.4848 0001221 283.9053 216.2395 15.76855380  2200"
      },
      "geometry": {
        "type": "Point",
        "coordinates": [
          -109.09911719768769,
          17.393329947518
        ]
      }
    },
    {
      "type": "Feature",
      "properties": {
        "norad_id": 66867,
        "name": "STARLINK-36101",
        "group": "last-30-days",
        "lat": 16.08030777025823,
        "lon": -107.48027425736042,
        "alt_km": 341.0544935792568,
        "timestamp": "2025-12-17T21:39:44.492499+00:00",
        "meta_object_name": "STARLINK-36101",
        "meta_object_id": "2025-281V",
        "meta_epoch": "2025-12-17T14:00:03.000384",
        "meta_mean_motion": 15.76706546,
        "meta_eccentricity": 0.00013538,
        "meta_inclination": 43.0006,
        "meta_ra_of_asc_node": 92.4798,
        "meta_arg_of_pericenter": 287.3971,
        "meta_mean_anomaly": 214.9768,
        "meta_ephemeris_type": 0,
        "meta_classification_type": "U",
        "meta_norad_cat_id": 66867,
        "meta_element_set_no": 999,
        "meta_rev_at_epoch": 201,
        "meta_bstar": -0.010486973,
        "meta_mean_motion_dot": -0.0152232,
        "meta_mean_motion_ddot": 0,
        "tle_line1": "1 66867U 25281V   25351.58336806 -.01522320  00000+0 -10487-1 0  9993",
        "tle_line2": "2 66867  43.0006  92.4798 0001353 287.3971 214.9768 15.76706546  2013"
      },
      "geometry": {
        "type": "Point",
        "coordinates": [
          -107.48027425736042,
          16.08030777025823
        ]
      }
    },
    {
      "type": "Feature",
      "properties": {
        "norad_id": 66868,
        "name": "STARLINK-36108",
        "group": "last-30-days",
        "lat": 14.774608269460332,
        "lon": -105.90729561073721,
        "alt_km": 341.7022333264722,
        "timestamp": "2025-12-17T21:39:44.492511+00:00",
        "meta_object_name": "STARLINK-36108",
        "meta_object_id": "2025-281W",
        "meta_epoch": "2025-12-17T14:00:03.000384",
        "meta_mean_motion": 15.76503844,
        "meta_eccentricity": 0.00014244,
        "meta_inclination": 43.0006,
        "meta_ra_of_asc_node": 92.4733,
        "meta_arg_of_pericenter": 277.4907,
        "meta_mean_anomaly": 227.1306,
        "meta_ephemeris_type": 0,
        "meta_classification_type": "U",
        "meta_norad_cat_id": 66868,
        "meta_element_set_no": 999,
        "meta_rev_at_epoch": 201,
        "meta_bstar": -0.010693063,
        "meta_mean_motion_dot": -0.01536243,
        "meta_mean_motion_ddot": 0,
        "tle_line1": "1 66868U 25281W   25351.58336806 -.01536243  00000+0 -10693-1 0  9992",
        "tle_line2": "2 66868  43.0006  92.4733 0001424 277.4907 227.1306 15.76503844  2011"
      },
      "geometry": {
        "type": "Point",
        "coordinates": [
          -105.90729561073721,
          14.774608269460332
        ]
      }
    },
    {
      "type": "Feature",
      "properties": {
        "norad_id": 66869,
        "name": "STARLINK-36092",
        "group": "last-30-days",
        "lat": 13.481743685362078,
        "lon": -104.37975544769999,
        "alt_km": 342.4200562178339,
        "timestamp": "2025-12-17T21:39:44.492520+00:00",
        "meta_object_name": "STARLINK-36092",
        "meta_object_id": "2025-281X",
        "meta_epoch": "2025-12-17T14:00:03.000384",
        "meta_mean_motion": 15.76429459,
        "meta_eccentricity": 0.00017256,
        "meta_inclination": 43.0007,
        "meta_ra_of_asc_node": 92.4681,
        "meta_arg_of_pericenter": 284.1466,
        "meta_mean_anomaly": 222.5502,
        "meta_ephemeris_type": 0,
        "meta_classification_type": "U",
        "meta_norad_cat_id": 66869,
        "meta_element_set_no": 999,
        "meta_rev_at_epoch": 220,
        "meta_bstar": -0.011060901,
        "meta_mean_motion_dot": -0.01608709,
        "meta_mean_motion_ddot": 0,
        "tle_line1": "1 66869U 25281X   25351.58336806 -.01608709  00000+0 -11061-1 0  9990",
        "tle_line2": "2 66869  43.0007  92.4681 0001725 284.1466 222.5502 15.76429459  2201"
      },
      "geometry": {
        "type": "Point",
        "coordinates": [
          -104.37975544769999,
          13.481743685362078
        ]
      }
    }
  ]
}